     3.02           N: GNSS NAV DATA    E: GALILEO          RINEX VERSION / TYPE
GECCO V2.0.4.1      CNES-NTMF brdc v2   20190704 002911 UTC PGM / RUN BY / DATE
GAL    3.0750D+01  8.9844D-02  1.2482D-02                   IONOSPHERIC CORR
GAUT  1.3038516045D-08-7.993605777D-15  86400 2060        0 TIME SYSTEM CORR
GPGA  1.0826624930D-08-2.220446049D-15 172800 2060        0 TIME SYSTEM CORR
    18                                                      LEAP SECONDS
                                                            END OF HEADER
E01 2019 07 01 00 00 00-6.374700460583D-04-8.085976332950D-12 0.000000000000D+00
     1.600000000000D+01 2.106250000000D+02 2.413671967697D-09 5.641607228729D-01
     9.929761290550D-06 1.870252890512D-04 7.383525371552D-06 5.440612319946D+03
     8.640000000000D+04-3.725290298462D-09 2.424721177655D-01 1.657754182816D-07
     9.878562635157D-01 1.958125000000D+02 3.073143357419D+00-5.291648989849D-09
     2.003654888840D-10 2.580000000000D+02 2.060000000000D+03 0.000000000000D+00
     3.120000000000D+00 0.000000000000D+00-1.862645149231D-09 0.000000000000D+00
     8.714000000000D+04 0.000000000000D+00 0.000000000000D+00 0.000000000000D+00

